#   SL-6 R/B(2)         # 12h resonant ecc in the > 0.715 range
# 0 2880 120
1 22674U 93035D   06176.55909107  .00002121  00000-0  29868-3 0  6569
2 22674  63.5035 354.4452 7541712 253.3264  18.7754  1.96679808 93877
